NORAD_CAT_ID,OBJECT_NAME,OBJECT_TYPE,EPOCH,MEAN_MOTION,ECCENTRICITY,INCLINATION,RA_OF_ASC_NODE,ARG_OF_PERICENTER,MEAN_ANOMALY,BSTAR,MEAN_MOTION_DOT,MEAN_MOTION_DDOT,TLE_LINE0,TLE_LINE1,TLE_LINE2,SEMIMAJOR_AXIS,PERIOD,APOGEE,PERIGEE,DECAYED
52479.0,STARLINK-3878,PAYLOAD,2022-09-01 14:00:01,15.08873107,0.0001558,53.2152,58.1821,68.8871,254.4546,-0.0039772,-0.00063088,0.0,0 STARLINK-3878,1 52479U 22049AE  22244.58335648 -.00063088  00000-0 -39772-2 0  9997,2 52479  53.2152  58.1821 0001558  68.8871 254.4546 15.08873107  1303,6917.779,95.435,540.722,538.566,0.0
52479.0,STARLINK-3878,PAYLOAD,2022-09-01 22:00:00,15.08806598,0.0001708,53.2149,56.6872,62.3266,272.5653,0.002722,0.00043259,0.0,0 STARLINK-3878,1 52479U 22049AE  22244.91667824  .00043259  00000-0  27220-2 0  9999,2 52479  53.2149  56.6872 0001708  62.3266 272.5653 15.08806598  1302,6917.982,95.44,541.029,538.6659999999998,0.0
52479.0,STARLINK-3878,PAYLOAD,2022-09-02 06:00:00,15.08822373,0.000159,53.2149,55.1892,68.7895,277.6805,0.00074347,0.00011558,0.0,0 STARLINK-3878,1 52479U 22049AE  22245.25001157  .00011558  00000-0  74347-3 0  9998,2 52479  53.2149  55.1892 0001590  68.7895 277.6805 15.08822373 18644,6917.934,95.439,540.899,538.6990000000002,0.0
52479.0,STARLINK-3878,PAYLOAD,2022-09-02 14:00:01,15.08849994,0.0001636,53.215,53.6933,70.2388,287.802,-0.0014927999999999,-0.00023974,0.0,0 STARLINK-3878,1 52479U 22049AE  22245.58334491 -.00023974  00000-0 -14928-2 0  9999,2 52479  53.2150  53.6933 0001636  70.2388 287.8020 15.08849994  1306,6917.85,95.437,540.847,538.5830000000002,0.0
52479.0,STARLINK-3878,PAYLOAD,2022-09-02 22:00:01,15.08816779,0.0001709,53.2147,52.1981,62.9034,306.8021,0.0028303,0.00045016,0.0,0 STARLINK-3878,1 52479U 22049AE  22245.91668981  .00045016  00000-0  28303-2 0  9991,2 52479  53.2147  52.1981 0001709  62.9034 306.8021 15.08816779  1304,6917.951,95.439,540.999,538.634,0.0
52479.0,STARLINK-3878,PAYLOAD,2022-09-03 08:00:01,15.08821912,0.0001587,53.2146,50.3257,70.4253,43.7116,0.0028209,0.00044871,0.0,0 STARLINK-3878,1 52479U 22049AE  22246.33334491  .00044871  00000-0  28209-2 0  9997,2 52479  53.2146  50.3257 0001587  70.4253  43.7116 15.08821912 18800,6917.936,95.439,540.899,538.703,0.0
52479.0,STARLINK-3878,PAYLOAD,2022-09-03 14:00:01,15.08865913,0.0001671,53.2148,49.2042,69.1711,323.6525,-0.0014435,-0.00023204,0.0,0 STARLINK-3878,1 52479U 22049AE  22246.58334491 -.00023204  00000-0 -14435-2 0  9999,2 52479  53.2148  49.2042 0001671  69.1711 323.6525 15.08865913  1309,6917.801,95.436,540.822,538.51,0.0
52479.0,STARLINK-3878,PAYLOAD,2022-09-03 22:00:00,15.08846619,0.0001685,53.2147,47.7089,60.8011,343.6407,0.00031372,4.709e-05,0.0,0 STARLINK-3878,1 52479U 22049AE  22246.91667824  .00004709  00000-0  31372-3 0  9992,2 52479  53.2147  47.7089 0001685  60.8011 343.6407 15.08846619  1301,6917.86,95.437,540.891,538.559,0.0
52479.0,STARLINK-3878,PAYLOAD,2022-09-04 06:00:00,15.08782251,0.0001361999999999,53.2148,46.2107,64.1173,351.8941,0.0020219,0.00031986,0.0,0 STARLINK-3878,1 52479U 22049AE  22247.25001157  .00031986  00000-0  20219-2 0  9995,2 52479  53.2148  46.2107 0001362  64.1173 351.8941 15.08782251 18948,6918.057,95.441,540.864,538.98,0.0
52479.0,STARLINK-3878,PAYLOAD,2022-09-04 14:00:01,15.08823466,0.0001474,53.2154,44.7146,63.4687,4.1409,-0.001576,-0.00025271,0.0,0 STARLINK-3878,1 52479U 22049AE  22247.58335648 -.00025271  00000-0 -15760-2 0  9993,2 52479  53.2154  44.7146 0001474  63.4687   4.1409 15.08823466  1300,6917.931,95.439,540.816,538.776,0.0
52479.0,STARLINK-3878,PAYLOAD,2022-09-04 20:00:01,15.08800667,0.0001578,53.215,43.5939,56.94,289.2955,0.0030115,0.00047914,0.0,0 STARLINK-3878,1 52479U 22049AE  22247.83334491  .00047914  00000-0  30115-2 0  9993,2 52479  53.2150  43.5939 0001578  56.9400 289.2955 15.08800667  1308,6918.001,95.44,540.957,538.774,0.0
52479.0,STARLINK-3878,PAYLOAD,2022-09-05 14:00:01,15.08864176,0.0001512,53.2152,40.2257,60.4745,41.8171,-0.001447,-0.00023258,0.0,0 STARLINK-3878,1 52479U 22049AE  22248.58334491 -.00023258  00000-0 -14470-2 0  9999,2 52479  53.2152  40.2257 0001512  60.4745  41.8171 15.08864176 19145,6917.806,95.436,540.717,538.626,0.0
52479.0,STARLINK-3878,PAYLOAD,2022-09-05 22:00:00,15.08838225,0.0001534,53.2151,38.7301,51.9379,61.9686,0.00050997,7.837e-05,0.0,0 STARLINK-3878,1 52479U 22049AE  22248.91667824  .00007837  00000-0  50997-3 0  9993,2 52479  53.2151  38.7301 0001534  51.9379  61.9686 15.08838225  1307,6917.886,95.438,540.812,538.69,0.0
52479.0,STARLINK-3878,PAYLOAD,2022-09-06 12:00:00,15.08870613,0.0001356,53.2157,36.1099,58.9328,345.2587,-0.0034779,-0.0005526,0.0,0 STARLINK-3878,1 52479U 22049AE  22249.50001157 -.00055260  00000-0 -34779-2 0  9994,2 52479  53.2157  36.1099 0001356  58.9328 345.2587 15.08870613 19283,6917.7869999999975,95.436,540.59,538.714,0.0
52479.0,STARLINK-3878,PAYLOAD,2022-09-06 14:00:01,15.08867895,0.0001389,53.2157,35.7362,56.194,80.902,-0.0043607,-0.00069075,0.0,0 STARLINK-3878,1 52479U 22049AE  22249.58334491 -.00069075  00000-0 -43607-2 0  9991,2 52479  53.2157  35.7362 0001389  56.1940  80.9020 15.08867895  1304,6917.795,95.436,540.621,538.6990000000002,0.0
52479.0,STARLINK-3878,PAYLOAD,2022-09-06 22:00:00,15.08817846,0.0001426,53.2154,34.2404,47.437,101.2632,0.0021229,0.00033639,0.0,0 STARLINK-3878,1 52479U 22049AE  22249.91667824  .00033639  00000-0  21229-2 0  9998,2 52479  53.2154  34.2404 0001426  47.4370 101.2632 15.08817846  1301,6917.948,95.439,540.8,538.827,0.0
52479.0,STARLINK-3878,PAYLOAD,2022-09-07 04:00:00,15.0882796,0.0001264,53.2158,33.1167,54.6515,12.7371,0.00084685,0.00013211,0.0,0 STARLINK-3878,1 52479U 22049AE  22250.16667824  .00013211  00000-0  84685-3 0  9997,2 52479  53.2158  33.1167 0001264  54.6515  12.7371 15.08827960 19381,6917.917,95.438,540.6569999999998,538.908,0.0
52479.0,STARLINK-3878,PAYLOAD,2022-09-07 14:00:01,15.08856222,0.0001343,53.2159,31.2468,53.6592,118.2129,-0.0012095,-0.00019494,0.0,0 STARLINK-3878,1 52479U 22049AE  22250.58334491 -.00019494  00000-0 -12095-2 0  9990,2 52479  53.2159  31.2468 0001343  53.6592 118.2129 15.08856222  1306,6917.831,95.437,540.625,538.7669999999998,0.0
52479.0,STARLINK-3878,PAYLOAD,2022-09-07 22:00:00,15.08860982,0.0001453999999999,53.2156,29.7508,48.6008,134.8773,-0.0012908,-0.00020784,0.0,0 STARLINK-3878,1 52479U 22049AE  22250.91667824 -.00020784  00000-0 -12908-2 0  9993,2 52479  53.2156  29.7508 0001454  48.6008 134.8773 15.08860982  1306,6917.816,95.436,540.687,538.675,0.0
52479.0,STARLINK-3878,PAYLOAD,2022-09-08 06:00:00,15.08814426,0.0001323,53.2157,28.2527,58.2819,136.8221,0.0032368,0.00051567,0.0,0 STARLINK-3878,1 52479U 22049AE  22251.25001157  .00051567  00000-0  32368-2 0  9995,2 52479  53.2157  28.2527 0001323  58.2819 136.8221 15.08814426 19541,6917.959,95.439,540.739,538.908,0.0
52479.0,STARLINK-3878,PAYLOAD,2022-09-08 14:00:01,15.08852186,0.000144,53.2159,26.7575,55.9866,150.6977,-0.0010735999999999,-0.00017339,0.0,0 STARLINK-3878,1 52479U 22049AE  22251.58334491 -.00017339  00000-0 -10736-2 0  9997,2 52479  53.2159  26.7575 0001440  55.9866 150.6977 15.08852186  1307,6917.843000000003,95.437,540.7040000000002,538.712,0.0
52479.0,STARLINK-3878,PAYLOAD,2022-09-08 22:00:00,15.08862919,0.0001537,53.2155,25.2614,52.1232,166.1654,-0.0021467,-0.00034312,0.0,0 STARLINK-3878,1 52479U 22049AE  22251.91667824 -.00034312  00000-0 -21467-2 0  9996,2 52479  53.2155  25.2614 0001537  52.1232 166.1654 15.08862919  1303,6917.81,95.436,540.739,538.612,0.0
52479.0,STARLINK-3878,PAYLOAD,2022-09-09 14:00:01,15.08859849,0.000152,53.2157,22.2684,57.4036,184.0852,-0.0020944,-0.00033484,0.0,0 STARLINK-3878,1 52479U 22049AE  22252.58334491 -.00033484  00000-0 -20944-2 0  9999,2 52479  53.2157  22.2684 0001520  57.4036 184.0852 15.08859849  1308,6917.82,95.436,540.736,538.633,0.0
52479.0,STARLINK-3878,PAYLOAD,2022-09-09 22:00:00,15.08839006,0.0001501999999999,53.2154,20.7721,51.223,201.8714,-0.00082099,-0.0001333,0.0,0 STARLINK-3878,1 52479U 22049AE  22252.91667824 -.00013330  00000-0 -82099-3 0  9993,2 52479  53.2154  20.7721 0001502  51.2230 201.8714 15.08839006  1306,6917.8830000000025,95.438,540.7869999999998,538.7090000000002,0.0
52479.0,STARLINK-3878,PAYLOAD,2022-09-10 06:00:02,15.08816062,0.0001361,53.2154,19.274,58.4315,206.3274,0.0034443,0.00054919,0.0,0 STARLINK-3878,1 52479U 22049AE  22253.25002315  .00054919  00000-0  34443-2 0  9994,2 52479  53.2154  19.2740 0001361  58.4315 206.3274 15.08816062 19853,6917.954000000002,95.439,540.76,538.877,0.0
52479.0,STARLINK-3878,PAYLOAD,2022-09-10 14:00:01,15.08864577,0.0001453,53.2155,17.7793,53.78100000000001,222.5005,-0.0030548,-0.0004861,0.0,0 STARLINK-3878,1 52479U 22049AE  22253.58334491 -.00048610  00000-0 -30548-2 0  9998,2 52479  53.2155  17.7793 0001453  53.7810 222.5005 15.08864577  1302,6917.805,95.436,540.675,538.665,0.0
52479.0,STARLINK-3878,PAYLOAD,2022-09-10 22:00:00,15.08852081,0.000147,53.2154,16.2829,48.2644,239.6244,-0.0034431999999999,-0.00054689,0.0,0 STARLINK-3878,1 52479U 22049AE  22253.91667824 -.00054689  00000-0 -34432-2 0  9993,2 52479  53.2154  16.2829 0001470  48.2644 239.6244 15.08852081 19959,6917.843000000003,95.437,540.725,538.692,0.0
52479.0,STARLINK-3878,PAYLOAD,2022-09-11 14:00:01,15.08832521,0.0001575,53.2156,13.2904,52.7095,258.3382,-0.00031597,-5.312e-05,0.0,0 STARLINK-3878,1 52479U 22049AE  22254.58334491 -.00005312  00000-0 -31597-3 0  9997,2 52479  53.2156  13.2904 0001575  52.7095 258.3382 15.08832521  1306,6917.903,95.438,540.8580000000002,538.679,0.0
52479.0,STARLINK-3878,PAYLOAD,2022-09-11 22:00:00,15.08861897,0.0001608,53.2156,11.7939,49.1897,273.435,-0.0034801,-0.00055282,0.0,0 STARLINK-3878,1 52479U 22049AE  22254.91667824 -.00055282  00000-0 -34801-2 0  9994,2 52479  53.2156  11.7939 0001608  49.1897 273.4350 15.08861897  1305,6917.813,95.436,540.7909999999998,538.566,0.0
